*******************************************************************************
JPL/HORIZONS                2216 Kerch (1971 LF)           2023-Sep-04 11:16:39
Rec #:    2216 (+COV) Soln.date: 2023-Aug-22_18:13:29   # obs: 7666 (1938-2023)
 
IAU76/J2000 helio. ecliptic osc. elements (au, days, deg., period=Julian yrs):
 
  EPOCH=  2457832.5 ! 2017-Mar-20.00 (TDB)         Residual RMS= .25529
   EC= .09891199142895508  QR= 2.721030685493466   TP= 2458752.2023810404
   OM= 155.7542275049753   W=  181.9624610098182   IN= 10.44891921542018
   A= 3.01971689736334     MA= 187.2563702111865   ADIST= 3.318403109233214
   PER= 5.24756            N= .187825576           ANGMOM= .029746071
   DAN= 3.31819            DDN= 2.72117            L= 337.6841698
   B= -.3558424            MOID= 1.71117997        TP= 2019-Sep-25.7023810404
 
Asteroid physical parameters (km, seconds, rotational period in hours):
   GM= n.a.                RAD= 9.012              ROTPER= 9.462
   H= 11.28                G= .150                 B-V= n.a.
                           ALBEDO= .120            STYP= n.a.

ASTEROID comments: 
1: soln ref.= JPL#63, OCC=0
2: source=ORB
*******************************************************************************


*******************************************************************************
Ephemeris / API_USER Mon Sep  4 11:16:39 2023 Pasadena, USA      / Horizons
*******************************************************************************
Target body name: 2216 Kerch (1971 LF)            {source: JPL#63}
Center body name: Solar System Barycenter (0)     {source: DE441}
Center-site name: BODY CENTER
*******************************************************************************
Start time      : A.D. 2023-Aug-12 00:00:00.0000 TDB
Stop  time      : A.D. 2023-Aug-13 00:00:00.0000 TDB
Step-size       : 2880 minutes
*******************************************************************************
Center geodetic : 0.0, 0.0, 0.0                   {E-lon(deg),Lat(deg),Alt(km)}
Center cylindric: 0.0, 0.0, 0.0                   {E-lon(deg),Dxy(km),Dz(km)}
Center radii    : (undefined)
Small perturbers: Yes                             {source: SB441-N16}
Output units    : KM-S
Calendar mode   : Mixed Julian/Gregorian
Output type     : GEOMETRIC cartesian states
Output format   : 2 (position and velocity)
Reference frame : Ecliptic of J2000.0
*******************************************************************************
Initial IAU76/J2000 heliocentric ecliptic osculating elements (au, days, deg.):
  EPOCH=  2457832.5 ! 2017-Mar-20.00 (TDB)         Residual RMS= .25529        
   EC= .09891199142895508  QR= 2.721030685493466   TP= 2458752.2023810404      
   OM= 155.7542275049753   W=  181.9624610098182   IN= 10.44891921542018       
  Equivalent ICRF heliocentric cartesian coordinates (au, au/d):
   X=-3.179972388208038E+00  Y= 8.273699477398648E-01  Z= 4.493131427978251E-01
  VX=-2.358802925398928E-03 VY=-8.441557174898744E-03 VZ=-1.906710536973679E-03
Asteroid physical parameters (km, seconds, rotational period in hours):        
   GM= n.a.                RAD= 9.012              ROTPER= 9.462               
   H= 11.28                G= .150                 B-V= n.a.                   
                           ALBEDO= .120            STYP= n.a.                  
*******************************************************************************
JDTDB
   X     Y     Z
   VX    VY    VZ
*******************************************************************************
$$SOE
2460168.500000000 = A.D. 2023-Aug-12 00:00:00.0000 TDB 
 X =-2.783866701680161E+08 Y =-3.587838839995882E+08 Z = 8.125648214631772E+07
 VX= 1.427314866525636E+01 VY=-8.915046729777533E+00 VZ= 4.042283406962728E-01
$$EOE
*******************************************************************************
 
TIME

  Barycentric Dynamical Time ("TDB" or T_eph) output was requested. This
continuous coordinate time is equivalent to the relativistic proper time
of a clock at rest in a reference frame co-moving with the solar system
barycenter but outside the system's gravity well. It is the independent
variable in the solar system relativistic equations of motion.

  TDB runs at a uniform rate of one SI second per second and is independent
of irregularities in Earth's rotation.
 
CALENDAR SYSTEM

  Mixed calendar mode was active such that calendar dates after AD 1582-Oct-15
(if any) are in the modern Gregorian system. Dates prior to 1582-Oct-5 (if any)
are in the Julian calendar system, which is automatically extended for dates
prior to its adoption on 45-Jan-1 BC.  The Julian calendar is useful for
matching historical dates. The Gregorian calendar more accurately corresponds
to the Earth's orbital motion and seasons. A "Gregorian-only" calendar mode is
available if such physical events are the primary interest.

REFERENCE FRAME AND COORDINATES

  Ecliptic at the standard reference epoch

    Reference epoch: J2000.0
    X-Y plane: adopted Earth orbital plane at the reference epoch
               Note: IAU76 obliquity of 84381.448 arcseconds wrt ICRF X-Y plane
    X-axis   : ICRF
    Z-axis   : perpendicular to the X-Y plane in the directional (+ or -) sense
               of Earth's north pole at the reference epoch.

  Symbol meaning:

    JDTDB    Julian Day Number, Barycentric Dynamical Time
      X      X-component of position vector (km)
      Y      Y-component of position vector (km)
      Z      Z-component of position vector (km)
      VX     X-component of velocity vector (km/sec)                           
      VY     Y-component of velocity vector (km/sec)                           
      VZ     Z-component of velocity vector (km/sec)                           

ABERRATIONS AND CORRECTIONS

 Geometric state vectors have NO corrections or aberrations applied.

Computations by ...

    Solar System Dynamics Group, Horizons On-Line Ephemeris System
    4800 Oak Grove Drive, Jet Propulsion Laboratory
    Pasadena, CA  91109   USA

    General site: https://ssd.jpl.nasa.gov/
    Mailing list: https://ssd.jpl.nasa.gov/email_list.html
    System news : https://ssd.jpl.nasa.gov/horizons/news.html
    User Guide  : https://ssd.jpl.nasa.gov/horizons/manual.html
    Connect     : browser        https://ssd.jpl.nasa.gov/horizons/app.html#/x
                  API            https://ssd-api.jpl.nasa.gov/doc/horizons.html
                  command-line   telnet ssd.jpl.nasa.gov 6775
                  e-mail/batch   https://ssd.jpl.nasa.gov/ftp/ssd/hrzn_batch.txt
                  scripts        https://ssd.jpl.nasa.gov/ftp/ssd/SCRIPTS
    Author      : Jon.D.Giorgini@jpl.nasa.gov
*******************************************************************************
